QIANFAN-238             
1 69867U 26155V   26200.22016305  .00000173  00000+0  65039-4 0  9991
2 69867  89.0064  60.4874 0030530 210.0034 149.9412 14.26786189  1952
CZ-8A R/B               
1 69868U 26155W   26200.22579314  .00000288  00000+0  66994-4 0  9994
2 69868  88.9655  60.4040 0106480  89.6128 271.7278 14.48271637  1971
STARLINK-37886          
1 69943U 26157A   26200.25002315 -.00029369  00000+0 -14561-3 0  9990
2 69943  53.1594 275.5097 0001100  82.1202  65.9683 15.80895143  2803
STARLINK-37937          
1 69944U 26157B   26200.25002315 -.00026894  00000+0 -13297-3 0  9996
2 69944  53.1595 275.4909 0001107  82.2201  74.9521 15.80900406  2803
STARLINK-37903          
1 69945U 26157C   26200.25002315 -.00021879  00000+0 -10751-3 0  9997
2 69945  53.1595 275.4815 0001083  96.8365  64.8628 15.80887545  2809
STARLINK-37905          
1 69946U 26157D   26200.25002315 -.00012800  00000+0 -61378-4 0  9994
2 69946  53.1597 275.4412 0000595 101.1253  79.8581 15.80884950  2809
STARLINK-37904          
1 69947U 26157E   26200.25002315 -.00092667  00000+0 -47115-3 0  9996
2 69947  53.1596 275.4331 0000897 116.5999  68.4182 15.80866534  2800
STARLINK-37891          
1 69948U 26157F   26200.25002315 -.00054073  00000+0 -27186-3 0  9992
2 69948  53.1596 275.4242 0000924  84.6415 104.5371 15.80894713  2803
STARLINK-37923          
1 69949U 26157G   26200.25002315 -.00026833  00000+0 -13272-3 0  9997
2 69949  53.1597 275.3888 0000855  89.8372 116.4454 15.80891104  2807
STARLINK-37895          
1 69950U 26157H   26200.25002315  .00029479  00000+0  15246-3 0  9999
2 69950  53.1625 275.3730 0001094  84.5688 129.1790 15.80862309  2804
STARLINK-37841          
1 69951U 26157J   26200.25002315  .00023080  00000+0  12021-3 0  9990
2 69951  53.1625 275.3494 0001158  88.3798 136.7927 15.80863633  2804
STARLINK-37899          
1 69952U 26157K   26200.25002315 -.00002549  00000+0 -93772-5 0  9994
2 69952  53.1624 275.3265 0000723  88.0101 148.2977 15.80882203  2809
STARLINK-37900          
1 69953U 26157L   26200.25002315 -.00009370  00000+0 -43952-4 0  9998
2 69953  53.1624 275.3186 0001347  82.3659 157.7804 15.80885385  2808
STARLINK-37882          
1 69954U 26157M   26200.25002315 -.00002641  00000+0 -98375-5 0  9993
2 69954  53.1623 275.2962 0001154  71.0556 179.8997 15.80880188  2800
STARLINK-37928          
1 69955U 26157N   26200.25002315 -.00064110  00000+0 -32320-3 0  9999
2 69955  53.1597 275.2946 0001079  75.4886 176.1462 15.80904896  2803
STARLINK-37824          
1 69956U 26157P   26200.25002315  .00086068  00000+0  43531-3 0  9990
2 69956  53.1623 275.2921 0001317 102.6594 150.3225 15.80870959  2804
STARLINK-37919          
1 69957U 26157Q   26200.25002315 -.00059686  00000+0 -30057-3 0  9998
2 69957  53.1597 275.2897 0000625  82.8272 171.2173 15.80900793  2804
STARLINK-37964          
1 69958U 26157R   26200.25002315  .00012251  00000+0  65340-4 0  9998
2 69958  53.1596 275.2764 0000240 145.6926 114.7419 15.80931128  2805
STARLINK-37907          
1 69959U 26157S   26200.25002315  .00007224  00000+0  40110-4 0  9991
2 69959  53.1597 275.2558 0001287  60.3297 210.2781 15.80873681  2807
STARLINK-37901          
1 69960U 26157T   26200.25002315 -.00007664  00000+0 -35318-4 0  9997
2 69960  53.1595 275.2418 0000770  71.3358 205.8913 15.80879020  2808
STARLINK-37910          
1 69961U 26157U   26200.25002315 -.00040741  00000+0 -20355-3 0  9995
2 69961  53.1595 275.2229 0000877  61.5020 224.7756 15.80904558  2804
STARLINK-37925          
1 69962U 26157V   26200.25002315 -.00047734  00000+0 -23914-3 0  9999
2 69962  53.1594 275.2189 0000851  37.5033 250.7382 15.80918409  2802
STARLINK-37931          
1 69963U 26157W   26200.25002315 -.00044835  00000+0 -22431-3 0  9992
2 69963  53.1597 275.2119 0000491  76.1125 215.3798 15.80920350  2806
STARLINK-37914          
1 69964U 26157X   26200.25002315 -.00016070  00000+0 -78001-4 0  9998
2 69964  53.1592 275.1768 0001179  85.8260 222.2694 15.80879059  2803
STARLINK-37840          
1 69965U 26157Y   26200.25002315 -.00044477  00000+0 -22304-3 0  9995
2 69965  53.1590 275.1424 0000585  97.5443 227.4088 15.80866002  2802
STARLINK-37894          
1 69966U 26157Z   26200.25002315 -.00117462  00000+0 -59829-3 0  9993
2 69966  53.1592 275.1563 0001230  84.0340 234.1171 15.80922952  2809
STARLINK-37875          
1 69967U 26157AA  26200.25002315 -.00131302  00000+0 -66995-3 0  9995
2 69967  53.1590 275.1353 0000678  60.4097 267.8884 15.80934730  2819
STARLINK-36218          
1 69968U 26157AB  26200.25002315 -.00183198  00000+0 -94060-3 0  9990
2 69968  53.1589 275.1079 0001338  75.9551 265.3853 15.80959103  2453
STARLINK-37921          
1 69969U 26157AC  26200.25002315 -.00649141  00000+0 -34711-2 0  9992
2 69969  53.1589 275.0709 0001103  73.1269 285.9996 15.81290637  2816
STARLINK-37896          
1 69970U 26157AD  26200.25002315 -.00590300  00000+0 -31481-2 0  9997
2 69970  53.1590 275.0684 0001499 117.8604 242.4078 15.81197621  2817
