OBJECT_NAME,OBJECT_ID,EPOCH,MEAN_MOTION,ECCENTRICITY,INCLINATION,RA_OF_ASC_NODE,ARG_OF_PERICENTER,MEAN_ANOMALY,EPHEMERIS_TYPE,CLASSIFICATION_TYPE,NORAD_CAT_ID,ELEMENT_SET_NO,REV_AT_EPOCH,BSTAR,MEAN_MOTION_DOT,MEAN_MOTION_DDOT
QIANFAN-238,2026-155V,2026-07-19T05:17:02.087520,14.26786189,.00305304,89.0064,60.4874,210.0034,149.9412,0,U,69867,999,195,.65039264E-4,.173E-5,0
CZ-8A R/B,2026-155W,2026-07-19T05:25:08.527296,14.48271637,.01064808,88.9655,60.4040,89.6128,271.7278,0,U,69868,999,197,.66993669E-4,.288E-5,0
STARLINK-37886,2026-157A,2026-07-19T06:00:02.000160,15.80895143,.00011003,53.1594,275.5097,82.1202,65.9683,0,U,69943,999,280,-.14560664E-3,-.29369E-3,0
STARLINK-37937,2026-157B,2026-07-19T06:00:02.000160,15.80900406,.0001107,53.1595,275.4909,82.2201,74.9521,0,U,69944,999,280,-.13296852E-3,-.26894E-3,0
STARLINK-37903,2026-157C,2026-07-19T06:00:02.000160,15.80887545,.00010833,53.1595,275.4815,96.8365,64.8628,0,U,69945,999,280,-.10751377E-3,-.21879E-3,0
STARLINK-37905,2026-157D,2026-07-19T06:00:02.000160,15.80884950,.00005953,53.1597,275.4412,101.1253,79.8581,0,U,69946,999,280,-.61377753E-4,-.128E-3,0
STARLINK-37904,2026-157E,2026-07-19T06:00:02.000160,15.80866534,.00008975,53.1596,275.4331,116.5999,68.4182,0,U,69947,999,280,-.47114549E-3,-.92667E-3,0
STARLINK-37891,2026-157F,2026-07-19T06:00:02.000160,15.80894713,.00009244,53.1596,275.4242,84.6415,104.5371,0,U,69948,999,280,-.27186082E-3,-.54073E-3,0
STARLINK-37923,2026-157G,2026-07-19T06:00:02.000160,15.80891104,.00008553,53.1597,275.3888,89.8372,116.4454,0,U,69949,999,280,-.13271862E-3,-.26833E-3,0
STARLINK-37895,2026-157H,2026-07-19T06:00:02.000160,15.80862309,.00010946,53.1625,275.3730,84.5688,129.1790,0,U,69950,999,280,.15245946E-3,.29479E-3,0
STARLINK-37841,2026-157J,2026-07-19T06:00:02.000160,15.80863633,.00011584,53.1625,275.3494,88.3798,136.7927,0,U,69951,999,280,.12021024E-3,.2308E-3,0
STARLINK-37899,2026-157K,2026-07-19T06:00:02.000160,15.80882203,.00007234,53.1624,275.3265,88.0101,148.2977,0,U,69952,999,280,-.9377182E-5,-.2549E-4,0
STARLINK-37900,2026-157L,2026-07-19T06:00:02.000160,15.80885385,.00013476,53.1624,275.3186,82.3659,157.7804,0,U,69953,999,280,-.43952434E-4,-.937E-4,0
STARLINK-37882,2026-157M,2026-07-19T06:00:02.000160,15.80880188,.00011547,53.1623,275.2962,71.0556,179.8997,0,U,69954,999,280,-.9837532E-5,-.2641E-4,0
STARLINK-37928,2026-157N,2026-07-19T06:00:02.000160,15.80904896,.00010794,53.1597,275.2946,75.4886,176.1462,0,U,69955,999,280,-.32319829E-3,-.6411E-3,0
STARLINK-37824,2026-157P,2026-07-19T06:00:02.000160,15.80870959,.00013179,53.1623,275.2921,102.6594,150.3225,0,U,69956,999,280,.43530534E-3,.86068E-3,0
STARLINK-37919,2026-157Q,2026-07-19T06:00:02.000160,15.80900793,.00006255,53.1597,275.2897,82.8272,171.2173,0,U,69957,999,280,-.30057397E-3,-.59686E-3,0
STARLINK-37964,2026-157R,2026-07-19T06:00:02.000160,15.80931128,.00002406,53.1596,275.2764,145.6926,114.7419,0,U,69958,999,280,.65340244E-4,.12251E-3,0
STARLINK-37907,2026-157S,2026-07-19T06:00:02.000160,15.80873681,.0001287,53.1597,275.2558,60.3297,210.2781,0,U,69959,999,280,.4011018E-4,.7224E-4,0
STARLINK-37901,2026-157T,2026-07-19T06:00:02.000160,15.80879020,.000077,53.1595,275.2418,71.3358,205.8913,0,U,69960,999,280,-.35317872E-4,-.7664E-4,0
STARLINK-37910,2026-157U,2026-07-19T06:00:02.000160,15.80904558,.00008773,53.1595,275.2229,61.5020,224.7756,0,U,69961,999,280,-.20355161E-3,-.40741E-3,0
STARLINK-37925,2026-157V,2026-07-19T06:00:02.000160,15.80918409,.00008514,53.1594,275.2189,37.5033,250.7382,0,U,69962,999,280,-.23913977E-3,-.47734E-3,0
STARLINK-37931,2026-157W,2026-07-19T06:00:02.000160,15.80920350,.00004917,53.1597,275.2119,76.1125,215.3798,0,U,69963,999,280,-.22431281E-3,-.44835E-3,0
STARLINK-37914,2026-157X,2026-07-19T06:00:02.000160,15.80879059,.00011797,53.1592,275.1768,85.8260,222.2694,0,U,69964,999,280,-.78001209E-4,-.1607E-3,0
STARLINK-37840,2026-157Y,2026-07-19T06:00:02.000160,15.80866002,.00005853,53.1590,275.1424,97.5443,227.4088,0,U,69965,999,280,-.22304234E-3,-.44477E-3,0
STARLINK-37894,2026-157Z,2026-07-19T06:00:02.000160,15.80922952,.00012307,53.1592,275.1563,84.0340,234.1171,0,U,69966,999,280,-.59828692E-3,-.117462E-2,0
STARLINK-37875,2026-157AA,2026-07-19T06:00:02.000160,15.80934730,.00006789,53.1590,275.1353,60.4097,267.8884,0,U,69967,999,281,-.66995087E-3,-.131302E-2,0
STARLINK-36218,2026-157AB,2026-07-19T06:00:02.000160,15.80959103,.00013382,53.1589,275.1079,75.9551,265.3853,0,U,69968,999,245,-.94060201E-3,-.183198E-2,0
STARLINK-37921,2026-157AC,2026-07-19T06:00:02.000160,15.81290637,.00011033,53.1589,275.0709,73.1269,285.9996,0,U,69969,999,281,-.34710547E-2,-.649141E-2,0
STARLINK-37896,2026-157AD,2026-07-19T06:00:02.000160,15.81197621,.00014995,53.1590,275.0684,117.8604,242.4078,0,U,69970,999,281,-.31481171E-2,-.5903E-2,0
